NORAD_CAT_ID,OBJECT_NAME,OBJECT_TYPE,EPOCH,MEAN_MOTION,ECCENTRICITY,INCLINATION,RA_OF_ASC_NODE,ARG_OF_PERICENTER,MEAN_ANOMALY,BSTAR,MEAN_MOTION_DOT,MEAN_MOTION_DDOT,TLE_LINE0,TLE_LINE1,TLE_LINE2,SEMIMAJOR_AXIS,PERIOD,APOGEE,PERIGEE,DECAYED
52857.0,STARLINK-4199,PAYLOAD,2024-08-20 04:42:16,15.08832695,0.0001416,53.2198,47.2122,98.5026,261.6127,4.7479e-05,4.68e-06,0.0,0 STARLINK-4199,1 52857U 22062AD  24233.19602249  .00000468  00000-0  47479-4 0  9999,2 52857  53.2198  47.2122 0001416  98.5026 261.6127 15.08832695120899,6917.903,95.438,540.747,538.788,0.0
52857.0,STARLINK-4199,PAYLOAD,2024-08-20 17:25:20,15.08847116,0.0001353,53.2191,44.8341,98.6555,261.459,0.00011414,1.529e-05,0.0,0 STARLINK-4199,1 52857U 22062AD  24233.72593202  .00001529  00000-0  11414-3 0  9994,2 52857  53.2191  44.8341 0001353  98.6555 261.4590 15.08847116120971,6917.859,95.437,540.66,538.788,0.0
52857.0,STARLINK-4199,PAYLOAD,2024-08-21 20:26:54,15.08837688,0.0001321,53.2189,39.7747,73.667,286.4467,4.1157e-05,3.67e-06,0.0,0 STARLINK-4199,1 52857U 22062AD  24234.85202413  .00000367  00000-0  41157-4 0  9997,2 52857  53.2189  39.7747 0001321  73.6670 286.4467 15.08837688121140,6917.887,95.438,540.666,538.839,0.0
